******** Week 380 almanac for PRN-01 ********
ID:                         01
Health:                     000
Eccentricity:               0.1830577850E-002
Time of Applicability(s):  405504.0000
Orbital Inclination(rad):   0.9571045426
Rate of Right Ascen(r/s):  -0.8126052768E-008
SQRT(A)  (m 1/2):           5153.549805
Right Ascen at Week(rad):   0.6275576822E+000
Argument of Perigee(rad):   0.192362914
Mean Anom(rad):            -0.7292415835E+000
Af0(s):                     0.2155303955E-003
Af1(s/s):                  -0.1091393642E-010
week:                        380

******** Week 380 almanac for PRN-02 ********
ID:                         02
Health:                     000
Eccentricity:               0.1691055298E-001
Time of Applicability(s):  405504.0000
Orbital Inclination(rad):   0.9620899801
Rate of Right Ascen(r/s):  -0.8023191341E-008
SQRT(A)  (m 1/2):           5153.679199
Right Ascen at Week(rad):   0.4656931231E+000
Argument of Perigee(rad):  -0.734807881
Mean Anom(rad):             0.6662850795E+000
Af0(s):                     0.1430511475E-003
Af1(s/s):                   0.7275957614E-011
week:                        380

******** Week 380 almanac for PRN-03 ********
ID:                         03
Health:                     000
Eccentricity:               0.6982803345E-002
Time of Applicability(s):  405504.0000
Orbital Inclination(rad):   0.9947709615
Rate of Right Ascen(r/s):  -0.7588887536E-008
SQRT(A)  (m 1/2):           5153.724609
Right Ascen at Week(rad):   0.1620055611E+001
Argument of Perigee(rad):   1.278747132
Mean Anom(rad):            -0.2837192217E+001
Af0(s):                     0.3595352173E-003
Af1(s/s):                  -0.1818989404E-010
week:                        380

******** Week 380 almanac for PRN-04 ********
ID:                         04
Health:                     000
Eccentricity:               0.3833293915E-002
Time of Applicability(s):  405504.0000
Orbital Inclination(rad):   0.9725042716
Rate of Right Ascen(r/s):  -0.7611745631E-008
SQRT(A)  (m 1/2):           5153.631836
Right Ascen at Week(rad):   0.2688381101E+001
Argument of Perigee(rad):  -2.901440396
Mean Anom(rad):             0.1563997526E+000
Af0(s):                     0.6294250488E-004
Af1(s/s):                   0.0000000000E+000
week:                        380

******** Week 380 almanac for PRN-05 ********
ID:                         05
Health:                     000
Eccentricity:               0.5609035492E-002
Time of Applicability(s):  405504.0000
Orbital Inclination(rad):   0.9811628741
Rate of Right Ascen(r/s):  -0.7748894201E-008
SQRT(A)  (m 1/2):           5153.730957
Right Ascen at Week(rad):   0.1558408009E+001
Argument of Perigee(rad):   1.484411038
Mean Anom(rad):             0.6845883615E+000
Af0(s):                    -0.2355575562E-003
Af1(s/s):                   0.0000000000E+000
week:                        380

******** Week 380 almanac for PRN-06 ********
ID:                         06
Health:                     000
Eccentricity:               0.3698825836E-002
Time of Applicability(s):  405504.0000
Orbital Inclination(rad):   0.9858666823
Rate of Right Ascen(r/s):  -0.7828897534E-008
SQRT(A)  (m 1/2):           5153.679688
Right Ascen at Week(rad):   0.5820929035E+000
Argument of Perigee(rad):  -0.548201890
Mean Anom(rad):            -0.1528819707E+001
Af0(s):                    -0.5674362183E-003
Af1(s/s):                   0.7275957614E-011
week:                        380

******** Week 380 almanac for PRN-07 ********
ID:                         07
Health:                     000
Eccentricity:               0.2093553543E-001
Time of Applicability(s):  405504.0000
Orbital Inclination(rad):   0.9513281462
Rate of Right Ascen(r/s):  -0.7874613724E-008
SQRT(A)  (m 1/2):           5153.526855
Right Ascen at Week(rad):  -0.2587800497E+001
Argument of Perigee(rad):  -1.955115439
Mean Anom(rad):            -0.2318725811E+001
Af0(s):                    -0.2088546753E-003
Af1(s/s):                  -0.3637978807E-011
week:                        380

******** Week 380 almanac for PRN-08 ********
ID:                         08
Health:                     000
Eccentricity:               0.1168918610E-001
Time of Applicability(s):  405504.0000
Orbital Inclination(rad):   0.9417527505
Rate of Right Ascen(r/s):  -0.7966046104E-008
SQRT(A)  (m 1/2):           5153.699707
Right Ascen at Week(rad):  -0.5434490213E+000
Argument of Perigee(rad):   0.544730584
Mean Anom(rad):             0.4049874063E+000
Af0(s):                     0.3919601440E-003
Af1(s/s):                  -0.1091393642E-010
week:                        380

******** Week 380 almanac for PRN-09 ********
ID:                         09
Health:                     000
Eccentricity:               0.3675937653E-002
Time of Applicability(s):  405504.0000
Orbital Inclination(rad):   0.9667698200
Rate of Right Ascen(r/s):  -0.7657461821E-008
SQRT(A)  (m 1/2):           5153.650879
Right Ascen at Week(rad):   0.2623192160E+001
Argument of Perigee(rad):   2.040258489
Mean Anom(rad):             0.1022190718E+001
Af0(s):                     0.7152557373E-003
Af1(s/s):                  -0.7275957614E-011
week:                        380

******** Week 380 almanac for PRN-10 ********
ID:                         10
Health:                     000
Eccentricity:               0.1114273071E-001
Time of Applicability(s):  405504.0000
Orbital Inclination(rad):   0.9942736161
Rate of Right Ascen(r/s):  -0.7623174679E-008
SQRT(A)  (m 1/2):           5153.610352
Right Ascen at Week(rad):   0.1617548661E+001
Argument of Perigee(rad):  -2.265532331
Mean Anom(rad):             0.2500128027E+001
Af0(s):                    -0.5626678467E-003
Af1(s/s):                   0.3637978807E-011
week:                        380

******** Week 380 almanac for PRN-11 ********
ID:                         11
Health:                     000
Eccentricity:               0.2496719360E-002
Time of Applicability(s):  405504.0000
Orbital Inclination(rad):   0.9627551046
Rate of Right Ascen(r/s):  -0.8057478483E-008
SQRT(A)  (m 1/2):           5153.600098
Right Ascen at Week(rad):   0.5977281974E+000
Argument of Perigee(rad):  -2.354075904
Mean Anom(rad):            -0.2977742833E+000
Af0(s):                    -0.2651214600E-003
Af1(s/s):                   0.1091393642E-010
week:                        380

******** Week 380 almanac for PRN-12 ********
ID:                         12
Health:                     000
Eccentricity:               0.8705615997E-002
Time of Applicability(s):  405504.0000
Orbital Inclination(rad):   0.9582610203
Rate of Right Ascen(r/s):  -0.7737465154E-008
SQRT(A)  (m 1/2):           5153.648438
Right Ascen at Week(rad):  -0.1468934535E+001
Argument of Perigee(rad):   1.587495221
Mean Anom(rad):            -0.3110791323E+001
Af0(s):                    -0.6055831909E-003
Af1(s/s):                   0.0000000000E+000
week:                        380

******** Week 380 almanac for PRN-13 ********
ID:                         13
Health:                     063
Eccentricity:               0.2270698547E-002
Time of Applicability(s):  405504.0000
Orbital Inclination(rad):   0.9587763419
Rate of Right Ascen(r/s):  -0.7748894201E-008
SQRT(A)  (m 1/2):           5153.532715
Right Ascen at Week(rad):  -0.1577451317E+001
Argument of Perigee(rad):   1.818378804
Mean Anom(rad):             0.3040121098E+001
Af0(s):                     0.4196166992E-003
Af1(s/s):                   0.7275957614E-011
week:                        380

******** Week 380 almanac for PRN-14 ********
ID:                         14
Health:                     000
Eccentricity:               0.7372379303E-002
Time of Applicability(s):  405504.0000
Orbital Inclination(rad):   0.9415849713
Rate of Right Ascen(r/s):  -0.7931758961E-008
SQRT(A)  (m 1/2):           5153.598633
Right Ascen at Week(rad):  -0.1525875332E+001
Argument of Perigee(rad):  -2.679933720
Mean Anom(rad):             0.3058393670E+001
Af0(s):                     0.7495880127E-003
Af1(s/s):                   0.0000000000E+000
week:                        380

******** Week 380 almanac for PRN-15 ********
ID:                         15
Health:                     000
Eccentricity:               0.1703596115E-001
Time of Applicability(s):  405504.0000
Orbital Inclination(rad):   0.9447847594
Rate of Right Ascen(r/s):  -0.7897471819E-008
SQRT(A)  (m 1/2):           5153.706055
Right Ascen at Week(rad):   0.2475744998E+001
Argument of Perigee(rad):   1.538679353
Mean Anom(rad):            -0.6176474773E+000
Af0(s):                     0.4310607910E-003
Af1(s/s):                   0.3637978807E-011
week:                        380

******** Week 380 almanac for PRN-16 ********
ID:                         16
Health:                     000
Eccentricity:               0.1504039764E-001
Time of Applicability(s):  405504.0000
Orbital Inclination(rad):   0.9573262507
Rate of Right Ascen(r/s):  -0.7760323249E-008
SQRT(A)  (m 1/2):           5153.661133
Right Ascen at Week(rad):  -0.1452184708E+001
Argument of Perigee(rad):   0.937859226
Mean Anom(rad):             0.1479566789E+001
Af0(s):                     0.3032684326E-003
Af1(s/s):                   0.7275957614E-011
week:                        380

